OBJECT_NAME,OBJECT_ID,EPOCH,MEAN_MOTION,ECCENTRICITY,INCLINATION,RA_OF_ASC_NODE,ARG_OF_PERICENTER,MEAN_ANOMALY,EPHEMERIS_TYPE,CLASSIFICATION_TYPE,NORAD_CAT_ID,ELEMENT_SET_NO,REV_AT_EPOCH,BSTAR,MEAN_MOTION_DOT,MEAN_MOTION_DDOT
ONEWEB-0721,2023-068R,2026-06-05T06:16:25.068000,13.22468429,.00019542,86.6764,89.3216,76.1776,283.9575,0,U,56725,999,15636,-.51325743E-4,-.7E-7,0
ONEWEB-0015,2024-188A,2026-06-05T00:36:58.854816,13.11415529,.00023188,87.8896,23.5136,79.3623,280.7766,0,U,61594,999,8286,-.16626085E-3,-.46E-6,0
ONEWEB-0687,2024-188B,2026-06-05T01:56:37.274208,13.17651137,.00023303,87.9135,8.2854,90.8740,269.2659,0,U,61595,999,8430,-.69217766E-4,-.14E-6,0
ONEWEB-0688,2024-188C,2026-06-05T00:48:35.047872,13.17647499,.0002984,87.9138,8.2945,75.8866,284.2597,0,U,61596,999,8429,.84595974E-4,.46E-6,0
ONEWEB-0689,2024-188D,2026-06-05T01:25:48.709920,13.11419632,.00018995,87.8909,23.4637,91.6112,268.5233,0,U,61597,999,8286,-.32944354E-3,-.104E-5,0
ONEWEB-0690,2024-188E,2026-06-05T01:40:28.216128,13.11420192,.00015693,87.8912,23.4726,57.2361,302.8918,0,U,61598,999,8304,.88791024E-3,.327E-5,0
ONEWEB-0691,2024-188F,2026-06-05T01:33:08.836704,13.11417832,.00021785,87.8919,23.3821,83.4429,276.6947,0,U,61599,999,8289,.34664842E-3,.136E-5,0
ONEWEB-0692,2024-188G,2026-06-05T00:12:35.309664,13.11415061,.00023394,87.8888,23.5079,71.6895,288.4488,0,U,61600,999,8287,.13534857E-2,.492E-5,0
ONEWEB-0693,2024-188H,2026-06-04T23:16:14.099232,13.17651642,.00016997,87.9133,8.3277,61.1838,298.9464,0,U,61601,999,8427,.71346304E-4,.41E-6,0
ONEWEB-0695,2024-188J,2026-06-05T01:28:14.938464,13.11418857,.00017644,87.8901,23.4906,102.5229,257.6097,0,U,61602,999,8287,-.10649407E-3,-.25E-6,0
ONEWEB-0697,2024-188K,2026-06-04T04:16:14.261376,13.11415815,.00012797,87.8894,23.6567,108.3101,251.8167,0,U,61603,999,8274,.65643828E-3,.245E-5,0
ONEWEB-0698,2024-188L,2026-06-05T01:42:54.156960,13.11419676,.00006295,87.8899,23.4924,69.4547,290.6648,0,U,61604,999,8288,.97596199E-3,.359E-5,0
ONEWEB-0699,2024-188M,2026-06-05T01:47:30.749280,13.10369803,.00012867,87.8838,38.6778,100.4437,259.6835,0,U,61605,999,8172,-.11267805E-2,-.381E-5,0
ONEWEB-0700,2024-188N,2026-06-05T01:49:54.004800,13.10370279,.00015951,87.8860,38.5847,103.9587,256.1718,0,U,61606,999,8171,-.1479467E-2,-.504E-5,0
ONEWEB-0701,2024-188P,2026-06-05T02:13:47.874144,13.10374612,.00011333,87.8854,38.6733,102.3425,257.7829,0,U,61607,999,8172,-.20615975E-2,-.707E-5,0
ONEWEB-0702,2024-188Q,2026-06-05T00:58:57.437184,13.11417983,.00013321,87.8913,23.4017,110.4521,249.6750,0,U,61608,999,8289,-.13135538E-2,-.453E-5,0
ONEWEB-0704,2024-188R,2026-06-05T01:57:04.287168,13.10372013,.00016309,87.8853,38.6639,113.7972,246.3326,0,U,61609,999,8170,-.20929093E-2,-.718E-5,0
ONEWEB-0705,2024-188S,2026-06-05T02:04:13.721952,13.10372107,.00024356,87.8853,38.6691,105.8092,254.3304,0,U,61610,999,7387,-.19916697E-2,-.683E-5,0
ONEWEB-0706,2024-188T,2026-06-05T01:42:44.175168,13.10369895,.00017518,87.8841,38.6781,100.6089,259.5236,0,U,61611,999,8179,-.78208927E-3,-.26E-5,0
ONEWEB-0707,2024-188U,2026-06-05T01:52:17.242176,13.10370818,.00017717,87.8847,38.6721,110.1818,249.9500,0,U,61612,999,8173,-.12283779E-2,-.416E-5,0
ONEWEB-0708,2024-188V,2026-06-04T17:08:48.603552,13.10376414,.00022994,87.8852,38.7616,90.7035,269.4356,0,U,61613,999,8166,-.12919174E-2,-.438E-5,0
