ONEWEB-0721             
1 56725U 23068R   26156.26140125 -.00000007  00000+0 -51326-4 0  9994
2 56725  86.6764  89.3216 0001954  76.1776 283.9575 13.22468429156367
ONEWEB-0015             
1 61594U 24188A   26156.02568119 -.00000046  00000+0 -16626-3 0  9995
2 61594  87.8896  23.5136 0002318  79.3623 280.7766 13.11415529 82869
ONEWEB-0687             
1 61595U 24188B   26156.08098697 -.00000014  00000+0 -69218-4 0  9992
2 61595  87.9135   8.2854 0002330  90.8740 269.2659 13.17651137 84303
ONEWEB-0688             
1 61596U 24188C   26156.03373898  .00000046  00000+0  84596-4 0  9996
2 61596  87.9138   8.2945 0002984  75.8866 284.2597 13.17647499 84297
ONEWEB-0689             
1 61597U 24188D   26156.05959155 -.00000104  00000+0 -32944-3 0  9991
2 61597  87.8909  23.4637 0001899  91.6112 268.5233 13.11419632 82867
ONEWEB-0690             
1 61598U 24188E   26156.06977102  .00000327  00000+0  88791-3 0  9991
2 61598  87.8912  23.4726 0001569  57.2361 302.8918 13.11420192 83045
ONEWEB-0691             
1 61599U 24188F   26156.06468561  .00000136  00000+0  34665-3 0  9995
2 61599  87.8919  23.3821 0002178  83.4429 276.6947 13.11417832 82890
ONEWEB-0692             
1 61600U 24188G   26156.00874201  .00000492  00000+0  13535-2 0  9991
2 61600  87.8888  23.5079 0002339  71.6895 288.4488 13.11415061 82871
ONEWEB-0693             
1 61601U 24188H   26155.96960763  .00000041  00000+0  71346-4 0  9991
2 61601  87.9133   8.3277 0001699  61.1838 298.9464 13.17651642 84275
ONEWEB-0695             
1 61602U 24188J   26156.06128401 -.00000025  00000+0 -10649-3 0  9991
2 61602  87.8901  23.4906 0001764 102.5229 257.6097 13.11418857 82873
ONEWEB-0697             
1 61603U 24188K   26155.17794284  .00000245  00000+0  65644-3 0  9998
2 61603  87.8894  23.6567 0001279 108.3101 251.8167 13.11415815 82745
ONEWEB-0698             
1 61604U 24188L   26156.07146015  .00000359  00000+0  97596-3 0  9999
2 61604  87.8899  23.4924 0000629  69.4547 290.6648 13.11419676 82884
ONEWEB-0699             
1 61605U 24188M   26156.07466145 -.00000381  00000+0 -11268-2 0  9997
2 61605  87.8838  38.6778 0001286 100.4437 259.6835 13.10369803 81727
ONEWEB-0700             
1 61606U 24188N   26156.07631950 -.00000504  00000+0 -14795-2 0  9991
2 61606  87.8860  38.5847 0001595 103.9587 256.1718 13.10370279 81716
ONEWEB-0701             
1 61607U 24188P   26156.09291521 -.00000707  00000+0 -20616-2 0  9994
2 61607  87.8854  38.6733 0001133 102.3425 257.7829 13.10374612 81723
ONEWEB-0702             
1 61608U 24188Q   26156.04094256 -.00000453  00000+0 -13136-2 0  9993
2 61608  87.8913  23.4017 0001332 110.4521 249.6750 13.11417983 82897
ONEWEB-0704             
1 61609U 24188R   26156.08129962 -.00000718  00000+0 -20929-2 0  9993
2 61609  87.8853  38.6639 0001630 113.7972 246.3326 13.10372013 81701
ONEWEB-0705             
1 61610U 24188S   26156.08626993 -.00000683  00000+0 -19917-2 0  9997
2 61610  87.8853  38.6691 0002435 105.8092 254.3304 13.10372107 73878
ONEWEB-0706             
1 61611U 24188T   26156.07134462 -.00000260  00000+0 -78209-3 0  9993
2 61611  87.8841  38.6781 0001751 100.6089 259.5236 13.10369895 81796
ONEWEB-0707             
1 61612U 24188U   26156.07797734 -.00000416  00000+0 -12284-2 0  9994
2 61612  87.8847  38.6721 0001771 110.1818 249.9500 13.10370818 81733
ONEWEB-0708             
1 61613U 24188V   26155.71445143 -.00000438  00000+0 -12919-2 0  9998
2 61613  87.8852  38.7616 0002299  90.7035 269.4356 13.10376414 81660
